*******************************************************************************
Ephemeris / WWW_USER Mon Jul 15 19:11:05 2024 Pasadena, USA      / Horizons    
*******************************************************************************
Target body name: (2018 RY7)                      {source: JPL#20}
Center body name: Earth (399)                     {source: DE441}
Center-site name: Gemini South Obs., Cerro Pachon
*******************************************************************************
Start time      : A.D. 2018-Nov-06 23:18:00.0000 UT      
Stop  time      : A.D. 2018-Nov-07 09:34:00.0000 UT      
Step-size       : 1 minutes
*******************************************************************************
Target pole/equ : undefined
Target radii    : undefined                                                    
Center geodetic : 289.2634, -30.2406227, 2.71233  {E-lon(deg),Lat(deg),Alt(km)}
Center cylindric: 289.2634,5517.21435,-3194.81213 {E-lon(deg),Dxy(km),Dz(km)}
Center pole/equ : ITRF93                          {East-longitude positive}
Center radii    : 6378.137, 6378.137, 6356.752 km {Equator_a, b, pole_c}       
Target primary  : Sun
Vis. interferer : MOON (R_eq= 1737.400) km        {source: DE441}
Rel. light bend : Sun                             {source: DE441}
Rel. lght bnd GM: 1.3271E+11 km^3/s^2                                          
Small-body perts: Yes                             {source: SB441-N16}
Atmos refraction: NO (AIRLESS)
RA format       : HMS
Time format     : CAL 
Calendar mode   : Mixed Julian/Gregorian
RTS-only print  : NO       
EOP file        : eop.240715.p241008                                           
EOP coverage    : DATA-BASED 1962-JAN-20 TO 2024-JUL-15. PREDICTS-> 2024-OCT-07
Units conversion: 1 au= 149597870.700 km, c= 299792.458 km/s, 1 day= 86400.0 s 
Table cut-offs 1: Elevation (-90.0deg=NO ),Airmass (>38.000=NO), Daylight (YES)
Table cut-offs 2: Solar elongation (  0.0,180.0=NO ),Local Hour Angle( 0.0=NO )
Table cut-offs 3: RA/DEC angular rate (     0.0=NO )                           
*******************************************************************************
Initial IAU76/J2000 heliocentric ecliptic osculating elements (au, days, deg.):
  EPOCH=  2458422.5 ! 2018-Oct-31.00 (TDB)         Residual RMS= .22459        
   EC= .1470549687381346   QR= .8667733479166969   TP= 2458516.8896767548      
   OM= 2.838668085760325   W=  136.9006026425241   IN= 13.35135890147074       
  Equivalent ICRF heliocentric cartesian coordinates (au, au/d):
   X= 8.791791513870114E-01  Y= 4.508422091141234E-01  Z= 3.244113040133835E-01
  VX=-1.085418916943652E-02 VY= 1.006005810562689E-02 VZ= 7.673980932675997E-03
Asteroid physical parameters (km, seconds, rotational period in hours):        
   GM= n.a.                RAD= n.a.               ROTPER= n.a.                
   H= 24.4                 G= .150                 B-V= n.a.                   
                           ALBEDO= n.a.            STYP= n.a.                  
*******************************************************************************
 Date__(UT)__HR:MN     R.A._________(ICRF)_________DEC
******************************************************
$$SOE
 2018-Nov-07 01:21     20 27 49.216904 +34 38 18.22163
 2018-Nov-07 01:22     20 27 49.116544 +34 38 18.82720
 2018-Nov-07 01:23     20 27 49.016237 +34 38 19.43245
 2018-Nov-07 01:24     20 27 48.915983 +34 38 20.03737
 2018-Nov-07 01:25     20 27 48.815782 +34 38 20.64198
 2018-Nov-07 01:26     20 27 48.715635 +34 38 21.24626
 2018-Nov-07 01:27     20 27 48.615541 +34 38 21.85024
 2018-Nov-07 01:28     20 27 48.515501 +34 38 22.45389
 2018-Nov-07 01:29     20 27 48.415515 +34 38 23.05724
 2018-Nov-07 01:30     20 27 48.315584 +34 38 23.66027
 2018-Nov-07 01:31     20 27 48.215707 +34 38 24.26300
 2018-Nov-07 01:32     20 27 48.115885 +34 38 24.86541
 2018-Nov-07 01:33     20 27 48.016117 +34 38 25.46752
 2018-Nov-07 01:34     20 27 47.916404 +34 38 26.06933
 2018-Nov-07 01:35     20 27 47.816747 +34 38 26.67083
 2018-Nov-07 01:36     20 27 47.717145 +34 38 27.27203
 2018-Nov-07 01:37     20 27 47.617598 +34 38 27.87294
 2018-Nov-07 01:38     20 27 47.518107 +34 38 28.47354
 2018-Nov-07 01:39     20 27 47.418672 +34 38 29.07384
 2018-Nov-07 01:40     20 27 47.319293 +34 38 29.67386
 2018-Nov-07 01:41     20 27 47.219971 +34 38 30.27357
 2018-Nov-07 01:42     20 27 47.120704 +34 38 30.87300
 2018-Nov-07 01:43     20 27 47.021495 +34 38 31.47214
 2018-Nov-07 01:44     20 27 46.922342 +34 38 32.07099
 2018-Nov-07 01:45     20 27 46.823245 +34 38 32.66955
 2018-Nov-07 01:46     20 27 46.724206 +34 38 33.26782
 2018-Nov-07 01:47     20 27 46.625224 +34 38 33.86582
 2018-Nov-07 01:48     20 27 46.526300 +34 38 34.46353
 2018-Nov-07 01:49     20 27 46.427433 +34 38 35.06096
 2018-Nov-07 01:50     20 27 46.328624 +34 38 35.65811
 2018-Nov-07 01:51     20 27 46.229873 +34 38 36.25499
 2018-Nov-07 01:52     20 27 46.131180 +34 38 36.85159
 2018-Nov-07 01:53     20 27 46.032545 +34 38 37.44792
 2018-Nov-07 01:54     20 27 45.933968 +34 38 38.04398
 2018-Nov-07 01:55     20 27 45.835450 +34 38 38.63977
 2018-Nov-07 01:56     20 27 45.736991 +34 38 39.23529
 2018-Nov-07 01:57     20 27 45.638590 +34 38 39.83054
 2018-Nov-07 01:58     20 27 45.540249 +34 38 40.42553
 2018-Nov-07 01:59     20 27 45.441967 +34 38 41.02026
 2018-Nov-07 02:00     20 27 45.343744 +34 38 41.61472
 2018-Nov-07 02:01     20 27 45.245580 +34 38 42.20893
 2018-Nov-07 02:02     20 27 45.147476 +34 38 42.80288
 2018-Nov-07 02:03     20 27 45.049432 +34 38 43.39657
 2018-Nov-07 02:04     20 27 44.951448 +34 38 43.99001
 2018-Nov-07 02:05     20 27 44.853524 +34 38 44.58320
 2018-Nov-07 02:06     20 27 44.755660 +34 38 45.17614
 2018-Nov-07 02:07     20 27 44.657857 +34 38 45.76882
 2018-Nov-07 02:08     20 27 44.560114 +34 38 46.36126
 2018-Nov-07 02:09     20 27 44.462431 +34 38 46.95346
 2018-Nov-07 02:10     20 27 44.364810 +34 38 47.54541
 2018-Nov-07 02:11     20 27 44.267249 +34 38 48.13712
 2018-Nov-07 02:12     20 27 44.169750 +34 38 48.72860
 2018-Nov-07 02:13     20 27 44.072311 +34 38 49.31983
 2018-Nov-07 02:14     20 27 43.974934 +34 38 49.91083
 2018-Nov-07 02:15     20 27 43.877619 +34 38 50.50159
 2018-Nov-07 02:16     20 27 43.780365 +34 38 51.09212
 2018-Nov-07 02:17     20 27 43.683173 +34 38 51.68242
 2018-Nov-07 02:18     20 27 43.586043 +34 38 52.27249
 2018-Nov-07 02:19     20 27 43.488974 +34 38 52.86233
 2018-Nov-07 02:20     20 27 43.391968 +34 38 53.45195
 2018-Nov-07 02:21     20 27 43.295025 +34 38 54.04135
 2018-Nov-07 02:22     20 27 43.198143 +34 38 54.63052
 2018-Nov-07 02:23     20 27 43.101325 +34 38 55.21948
 2018-Nov-07 02:24     20 27 43.004568 +34 38 55.80821
 2018-Nov-07 02:25     20 27 42.907875 +34 38 56.39673
 2018-Nov-07 02:26     20 27 42.811245 +34 38 56.98504
 2018-Nov-07 02:27     20 27 42.714677 +34 38 57.57313
 2018-Nov-07 02:28     20 27 42.618173 +34 38 58.16102
 2018-Nov-07 02:29     20 27 42.521732 +34 38 58.74869
 2018-Nov-07 02:30     20 27 42.425355 +34 38 59.33616
 2018-Nov-07 02:31     20 27 42.329041 +34 38 59.92342
 2018-Nov-07 02:32     20 27 42.232791 +34 39 00.51049
 2018-Nov-07 02:33     20 27 42.136604 +34 39 01.09735
 2018-Nov-07 02:34     20 27 42.040481 +34 39 01.68401
 2018-Nov-07 02:35     20 27 41.944423 +34 39 02.27047
 2018-Nov-07 02:36     20 27 41.848428 +34 39 02.85674
 2018-Nov-07 02:37     20 27 41.752498 +34 39 03.44281
 2018-Nov-07 02:38     20 27 41.656632 +34 39 04.02870
 2018-Nov-07 02:39     20 27 41.560830 +34 39 04.61439
 2018-Nov-07 02:40     20 27 41.465093 +34 39 05.19989
 2018-Nov-07 02:41     20 27 41.369420 +34 39 05.78521
 2018-Nov-07 02:42     20 27 41.273813 +34 39 06.37035
 2018-Nov-07 02:43     20 27 41.178270 +34 39 06.95530
 2018-Nov-07 02:44     20 27 41.082792 +34 39 07.54008
 2018-Nov-07 02:45  s  20 27 40.987379 +34 39 08.12467
 2018-Nov-07 02:46     20 27 40.892031 +34 39 08.70909
 2018-Nov-07 02:47     20 27 40.796749 +34 39 09.29334
 2018-Nov-07 02:48     20 27 40.701532 +34 39 09.87741
 2018-Nov-07 02:49     20 27 40.606380 +34 39 10.46131
 2018-Nov-07 02:50     20 27 40.511294 +34 39 11.04505
 2018-Nov-07 02:51     20 27 40.416274 +34 39 11.62861
 2018-Nov-07 02:52     20 27 40.321319 +34 39 12.21202
 2018-Nov-07 02:53     20 27 40.226430 +34 39 12.79526
 2018-Nov-07 02:54     20 27 40.131607 +34 39 13.37834
 2018-Nov-07 02:55     20 27 40.036850 +34 39 13.96126
 2018-Nov-07 02:56     20 27 39.942159 +34 39 14.54402
 2018-Nov-07 02:57     20 27 39.847535 +34 39 15.12663
 2018-Nov-07 02:58     20 27 39.752976 +34 39 15.70908
 2018-Nov-07 02:59     20 27 39.658484 +34 39 16.29139
 2018-Nov-07 03:00     20 27 39.564058 +34 39 16.87354
 2018-Nov-07 03:01     20 27 39.469699 +34 39 17.45555
 2018-Nov-07 03:02     20 27 39.375407 +34 39 18.03742
 2018-Nov-07 03:03     20 27 39.281181 +34 39 18.61914
 2018-Nov-07 03:04     20 27 39.187022 +34 39 19.20072
 2018-Nov-07 03:05     20 27 39.092930 +34 39 19.78216
 2018-Nov-07 03:06     20 27 38.998905 +34 39 20.36346
 2018-Nov-07 03:07     20 27 38.904946 +34 39 20.94463
 2018-Nov-07 03:08     20 27 38.811055 +34 39 21.52566
 2018-Nov-07 03:09     20 27 38.717231 +34 39 22.10657
 2018-Nov-07 03:10     20 27 38.623474 +34 39 22.68734
 2018-Nov-07 03:11     20 27 38.529784 +34 39 23.26799
 2018-Nov-07 03:12     20 27 38.436162 +34 39 23.84851
 2018-Nov-07 03:13     20 27 38.342607 +34 39 24.42891
 2018-Nov-07 03:14     20 27 38.249120 +34 39 25.00919
 2018-Nov-07 03:15     20 27 38.155700 +34 39 25.58935
 2018-Nov-07 03:16     20 27 38.062348 +34 39 26.16939
 2018-Nov-07 03:17     20 27 37.969063 +34 39 26.74931
 2018-Nov-07 03:18     20 27 37.875846 +34 39 27.32913
 2018-Nov-07 03:19     20 27 37.782697 +34 39 27.90883
 2018-Nov-07 03:20     20 27 37.689616 +34 39 28.48842
 2018-Nov-07 03:21     20 27 37.596603 +34 39 29.06790
 2018-Nov-07 03:22     20 27 37.503657 +34 39 29.64728
 2018-Nov-07 03:23     20 27 37.410780 +34 39 30.22656
